[{"OBJECT_NAME":"STARLINK-2356","OBJECT_ID":"2021-021AN","EPOCH":"2026-03-09T20:36:38.859840","MEAN_MOTION":15.30186543,"ECCENTRICITY":0.00011076,"INCLINATION":53.159,"RA_OF_ASC_NODE":280.2025,"ARG_OF_PERICENTER":103.5872,"MEAN_ANOMALY":256.5252,"EPHEMERIS_TYPE":0,"CLASSIFICATION_TYPE":"U","NORAD_CAT_ID":47896,"ELEMENT_SET_NO":999,"REV_AT_EPOCH":27604,"BSTAR":0.0001012518,"MEAN_MOTION_DOT":2.64e-5,"MEAN_MOTION_DDOT":0},{"OBJECT_NAME":"OBJECT A","OBJECT_ID":"2025-013A","EPOCH":"2026-03-09T23:29:31.895232","MEAN_MOTION":15.29260221,"ECCENTRICITY":0.0010321,"INCLINATION":97.6364,"RA_OF_ASC_NODE":244.5149,"ARG_OF_PERICENTER":282.3775,"MEAN_ANOMALY":77.6309,"EPHEMERIS_TYPE":0,"CLASSIFICATION_TYPE":"U","NORAD_CAT_ID":62729,"ELEMENT_SET_NO":999,"REV_AT_EPOCH":6276,"BSTAR":0.0013206527,"MEAN_MOTION_DOT":0.00037616,"MEAN_MOTION_DDOT":0}]
